start=new Date('2021-12-10T00:00:00.000Z').valueOf();
sats=[{"EPHEMERIS_TYPE":"0","EPOCH":"2021-12-09T13:15:35.923104","PERIOD":"95.592","SITE":"AFETR","TLE_LINE1":"1 47875U 21021R   21343.55249911  .00001705  00000-0  13330-3 0  9992","TLE_LINE2":"2 47875  53.0577  34.9357 0001302  63.6236 296.4886 15.06400106 42454","CENTER_NAME":"EARTH","REV_AT_EPOCH":"4245","DECAY_DATE":null,"ARG_OF_PERICENTER":"63.6236","ECCENTRICITY":"0.00013020","MEAN_MOTION_DOT":"0.00001705","TIME_SYSTEM":"UTC","OBJECT_ID":"2021-021R","LAUNCH_DATE":"2021-03-14","BSTAR":"0.00013330000000","CLASSIFICATION_TYPE":"U","GP_ID":"191399026","ELEMENT_SET_NO":"999","SEMIMAJOR_AXIS":"6925.348","MEAN_ELEMENT_THEORY":"SGP4","REF_FRAME":"TEME","OBJECT_NAME":"STARLINK-2331","INCLINATION":"53.0577","APOAPSIS":"548.115","PERIAPSIS":"546.312","MEAN_ANOMALY":"296.4886","OBJECT_TYPE":"PAYLOAD","MEAN_MOTION":"15.06400106","RCS_SIZE":"LARGE","COUNTRY_CODE":"US","MEAN_MOTION_DDOT":"0.0000000000000","RA_OF_ASC_NODE":"34.9357","NORAD_CAT_ID":"47875","FILE":"3236488"},{"ARG_OF_PERICENTER":"66.8855","ECCENTRICITY":"0.00013070","TLE_LINE2":"2 47876  53.0578  33.5075 0001307  66.8855 293.2271 15.06394921 42455","CENTER_NAME":"EARTH","REV_AT_EPOCH":"4245","SITE":"AFETR","TLE_LINE1":"1 47876U 21021S   21343.87318051 -.00000315  00000-0 -22591-5 0  9999","DECAY_DATE":null,"PERIOD":"95.592","EPOCH":"2021-12-09T20:57:22.796064","EPHEMERIS_TYPE":"0","CLASSIFICATION_TYPE":"U","BSTAR":"-0.00000225910000","ELEMENT_SET_NO":"999","GP_ID":"191399776","TIME_SYSTEM":"UTC","OBJECT_ID":"2021-021S","LAUNCH_DATE":"2021-03-14","MEAN_MOTION_DOT":"-0.00000315","OBJECT_TYPE":"PAYLOAD","MEAN_ANOMALY":"293.2271","OBJECT_NAME":"STARLINK-2332","INCLINATION":"53.0578","APOAPSIS":"548.134","PERIAPSIS":"546.324","REF_FRAME":"TEME","SEMIMAJOR_AXIS":"6925.364","MEAN_ELEMENT_THEORY":"SGP4","NORAD_CAT_ID":"47876","FILE":"3236488","RA_OF_ASC_NODE":"33.5075","MEAN_MOTION_DDOT":"0.0000000000000","COUNTRY_CODE":"US","RCS_SIZE":"LARGE","MEAN_MOTION":"15.06394921"},{"PERIOD":"95.592","EPOCH":"2021-12-09T13:20:54.299328","EPHEMERIS_TYPE":"0","ARG_OF_PERICENTER":"70.0058","ECCENTRICITY":"0.00014050","REV_AT_EPOCH":"4239","TLE_LINE2":"2 47877  53.0579  34.9159 0001405  70.0058 290.1082 15.06399979 42393","CENTER_NAME":"EARTH","SITE":"AFETR","TLE_LINE1":"1 47877U 21021T   21343.55618402  .00001323  00000-0  10768-3 0  9997","DECAY_DATE":null,"TIME_SYSTEM":"UTC","OBJECT_ID":"2021-021T","LAUNCH_DATE":"2021-03-14","MEAN_MOTION_DOT":"0.00001323","CLASSIFICATION_TYPE":"U","BSTAR":"0.00010768000000","ELEMENT_SET_NO":"999","GP_ID":"191398524","REF_FRAME":"TEME","SEMIMAJOR_AXIS":"6925.349","MEAN_ELEMENT_THEORY":"SGP4","MEAN_ANOMALY":"290.1082","OBJECT_TYPE":"PAYLOAD","OBJECT_NAME":"STARLINK-2333","INCLINATION":"53.0579","PERIAPSIS":"546.241","APOAPSIS":"548.187","COUNTRY_CODE":"US","MEAN_MOTION":"15.06399979","RCS_SIZE":"LARGE","FILE":"3236488","NORAD_CAT_ID":"47877","RA_OF_ASC_NODE":"34.9159","MEAN_MOTION_DDOT":"0.0000000000000"},{"MEAN_ANOMALY":"301.4367","OBJECT_TYPE":"PAYLOAD","OBJECT_NAME":"STARLINK-2335","INCLINATION":"53.0558","APOAPSIS":"548.222","PERIAPSIS":"546.248","REF_FRAME":"TEME","SEMIMAJOR_AXIS":"6925.370","MEAN_ELEMENT_THEORY":"SGP4","FILE":"3236488","NORAD_CAT_ID":"47878","RA_OF_ASC_NODE":"33.6918","MEAN_MOTION_DDOT":"0.0000000000000","COUNTRY_CODE":"US","RCS_SIZE":"LARGE","MEAN_MOTION":"15.06392903","ARG_OF_PERICENTER":"58.6761","ECCENTRICITY":"0.00014250","CENTER_NAME":"EARTH","TLE_LINE2":"2 47878  53.0558  33.6918 0001425  58.6761 301.4367 15.06392903 42230","REV_AT_EPOCH":"4223","SITE":"AFETR","TLE_LINE1":"1 47878U 21021U   21343.83263567 -.00000905  00000-0 -41882-4 0  9996","DECAY_DATE":null,"EPOCH":"2021-12-09T19:58:59.721888","PERIOD":"95.593","EPHEMERIS_TYPE":"0","CLASSIFICATION_TYPE":"U","BSTAR":"-0.00004188200000","ELEMENT_SET_NO":"999","GP_ID":"191398275","TIME_SYSTEM":"UTC","OBJECT_ID":"2021-021U","LAUNCH_DATE":"2021-03-14","MEAN_MOTION_DOT":"-0.00000905"},{"APOAPSIS":"548.025","PERIAPSIS":"546.428","INCLINATION":"53.0558","OBJECT_NAME":"STARLINK-2336","MEAN_ANOMALY":"295.1685","OBJECT_TYPE":"PAYLOAD","MEAN_ELEMENT_THEORY":"SGP4","SEMIMAJOR_AXIS":"6925.361","REF_FRAME":"TEME","RA_OF_ASC_NODE":"49.9053","MEAN_MOTION_DDOT":"0.0000000000000","FILE":"3236488","NORAD_CAT_ID":"47879","MEAN_MOTION":"15.06395779","RCS_SIZE":"LARGE","COUNTRY_CODE":"US","DECAY_DATE":null,"REV_AT_EPOCH":"4236","TLE_LINE2":"2 47879  53.0558  49.9053 0001153  64.9423 295.1685 15.06395779 42364","CENTER_NAME":"EARTH","SITE":"AFETR","TLE_LINE1":"1 47879U 21021V   21343.56402056 -.00000477  00000-0 -13142-4 0  9997","ECCENTRICITY":"0.00011530","ARG_OF_PERICENTER":"64.9423","EPHEMERIS_TYPE":"0","EPOCH":"2021-12-09T13:32:11.376384","PERIOD":"95.592","ELEMENT_SET_NO":"999","GP_ID":"191399526","CLASSIFICATION_TYPE":"U","BSTAR":"-0.00001314200000","MEAN_MOTION_DOT":"-0.00000477","LAUNCH_DATE":"2021-03-14","OBJECT_ID":"2021-021V","TIME_SYSTEM":"UTC"},{"EPHEMERIS_TYPE":"0","PERIOD":"95.593","EPOCH":"2021-12-09T20:54:41.254848","DECAY_DATE":null,"REV_AT_EPOCH":"4230","TLE_LINE2":"2 47880  53.0581  43.5030 0001251  72.4913 287.6213 15.06392205 42302","CENTER_NAME":"EARTH","SITE":"AFETR","TLE_LINE1":"1 47880U 21021W   21343.87131082  .00000650  00000-0  62517-4 0  9992","ECCENTRICITY":"0.00012510","ARG_OF_PERICENTER":"72.4913","MEAN_MOTION_DOT":"0.00000650","LAUNCH_DATE":"2021-03-14","OBJECT_ID":"2021-021W","TIME_SYSTEM":"UTC","ELEMENT_SET_NO":"999","GP_ID":"191399277","CLASSIFICATION_TYPE":"U","BSTAR":"0.00006251700000","MEAN_ELEMENT_THEORY":"SGP4","SEMIMAJOR_AXIS":"6925.372","REF_FRAME":"TEME","PERIAPSIS":"546.371","APOAPSIS":"548.104","OBJECT_NAME":"STARLINK-2337","INCLINATION":"53.0581","OBJECT_TYPE":"PAYLOAD","MEAN_ANOMALY":"287.6213","RCS_SIZE":"LARGE","MEAN_MOTION":"15.06392205","COUNTRY_CODE":"US","RA_OF_ASC_NODE":"43.5030","MEAN_MOTION_DDOT":"0.0000000000000","NORAD_CAT_ID":"47880","FILE":"3236488"},{"ELEMENT_SET_NO":"999","GP_ID":"191398025","CLASSIFICATION_TYPE":"U","BSTAR":"0.00009145600000","LAUNCH_DATE":"2021-03-14","OBJECT_ID":"2021-021X","TIME_SYSTEM":"UTC","MEAN_MOTION_DOT":"0.00001081","ECCENTRICITY":"0.00014450","ARG_OF_PERICENTER":"76.6645","DECAY_DATE":null,"REV_AT_EPOCH":"4223","TLE_LINE2":"2 47881  53.0660  44.5512 0001445  76.6645 283.4505 15.06401244 42234","CENTER_NAME":"EARTH","SITE":"AFETR","TLE_LINE1":"1 47881U 21021X   21343.62898220  .00001081  00000-0  91456-4 0  9993","PERIOD":"95.592","EPOCH":"2021-12-09T15:05:44.062080","EPHEMERIS_TYPE":"0","NORAD_CAT_ID":"47881","FILE":"3236488","RA_OF_ASC_NODE":"44.5512","MEAN_MOTION_DDOT":"0.0000000000000","COUNTRY_CODE":"US","RCS_SIZE":"LARGE","MEAN_MOTION":"15.06401244","OBJECT_TYPE":"PAYLOAD","MEAN_ANOMALY":"283.4505","PERIAPSIS":"546.209","APOAPSIS":"548.210","INCLINATION":"53.0660","OBJECT_NAME":"STARLINK-2339","REF_FRAME":"TEME","MEAN_ELEMENT_THEORY":"SGP4","SEMIMAJOR_AXIS":"6925.345"},{"MEAN_MOTION":"15.06396033","RCS_SIZE":"LARGE","COUNTRY_CODE":"US","RA_OF_ASC_NODE":"33.5099","MEAN_MOTION_DDOT":"0.0000000000000","FILE":"3236488","NORAD_CAT_ID":"47882","MEAN_ELEMENT_THEORY":"SGP4","SEMIMAJOR_AXIS":"6925.361","REF_FRAME":"TEME","APOAPSIS":"548.116","PERIAPSIS":"546.336","OBJECT_NAME":"STARLINK-2340","INCLINATION":"53.0566","OBJECT_TYPE":"PAYLOAD","MEAN_ANOMALY":"281.7442","MEAN_MOTION_DOT":"-0.00000504","LAUNCH_DATE":"2021-03-14","OBJECT_ID":"2021-021Y","TIME_SYSTEM":"UTC","ELEMENT_SET_NO":"999","GP_ID":"191398775","CLASSIFICATION_TYPE":"U","BSTAR":"-0.00001492000000","EPHEMERIS_TYPE":"0","PERIOD":"95.592","EPOCH":"2021-12-09T20:52:04.285920","DECAY_DATE":null,"TLE_LINE2":"2 47882  53.0566  33.5099 0001285  78.3691 281.7442 15.06396033 42612","REV_AT_EPOCH":"4261","CENTER_NAME":"EARTH","TLE_LINE1":"1 47882U 21021Y   21343.86949405 -.00000504  00000-0 -14920-4 0  9994","SITE":"AFETR","ECCENTRICITY":"0.00012850","ARG_OF_PERICENTER":"78.3691"},{"SEMIMAJOR_AXIS":"6925.375","MEAN_ELEMENT_THEORY":"SGP4","REF_FRAME":"TEME","OBJECT_NAME":"STARLINK-2342","INCLINATION":"53.0552","PERIAPSIS":"546.274","APOAPSIS":"548.207","MEAN_ANOMALY":"290.3097","OBJECT_TYPE":"PAYLOAD","MEAN_MOTION":"15.06391269","RCS_SIZE":"LARGE","COUNTRY_CODE":"US","RA_OF_ASC_NODE":"39.5509","MEAN_MOTION_DDOT":"0.0000000000000","FILE":"3236488","NORAD_CAT_ID":"47883","EPHEMERIS_TYPE":"0","PERIOD":"95.593","EPOCH":"2021-12-09T15:24:58.890528","REV_AT_EPOCH":"4251","TLE_LINE2":"2 47883  53.0552  39.5509 0001396  69.8043 290.3097 15.06391269 42516","CENTER_NAME":"EARTH","TLE_LINE1":"1 47883U 21021Z   21343.64234827 -.00000202  00000-0  53574-5 0  9999","SITE":"AFETR","DECAY_DATE":null,"ARG_OF_PERICENTER":"69.8043","ECCENTRICITY":"0.00013960","MEAN_MOTION_DOT":"-0.00000202","TIME_SYSTEM":"UTC","OBJECT_ID":"2021-021Z","LAUNCH_DATE":"2021-03-14","CLASSIFICATION_TYPE":"U","BSTAR":"0.00000535740000","ELEMENT_SET_NO":"999","GP_ID":"191399027"},{"EPOCH":"2021-12-09T13:24:53.211744","PERIOD":"95.592","EPHEMERIS_TYPE":"0","ARG_OF_PERICENTER":"70.1336","ECCENTRICITY":"0.00011830","TLE_LINE1":"1 47884U 21021AA  21343.55894921 -.00000354  00000-0 -48571-5 0  9997","SITE":"AFETR","CENTER_NAME":"EARTH","TLE_LINE2":"2 47884  53.0569  44.9066 0001183  70.1336 289.9780 15.06395080 42256","REV_AT_EPOCH":"4225","DECAY_DATE":null,"TIME_SYSTEM":"UTC","OBJECT_ID":"2021-021AA","LAUNCH_DATE":"2021-03-14","MEAN_MOTION_DOT":"-0.00000354","BSTAR":"-0.00000485710000","CLASSIFICATION_TYPE":"U","GP_ID":"191399777","ELEMENT_SET_NO":"999","REF_FRAME":"TEME","SEMIMAJOR_AXIS":"6925.364","MEAN_ELEMENT_THEORY":"SGP4","MEAN_ANOMALY":"289.9780","OBJECT_TYPE":"PAYLOAD","OBJECT_NAME":"STARLINK-2343","INCLINATION":"53.0569","APOAPSIS":"548.048","PERIAPSIS":"546.409","COUNTRY_CODE":"US","RCS_SIZE":"LARGE","MEAN_MOTION":"15.06395080","FILE":"3236488","NORAD_CAT_ID":"47884","MEAN_MOTION_DDOT":"0.0000000000000","RA_OF_ASC_NODE":"44.9066"}];
